#dP2024  6 29  0  0  0.00000000      96 __u+U IGS20 EXT  IAC
## 2320 518400.00000000   900.00000000 60490 0.0000000000000
+   53   G02G03G04G05G06G07G08G09G10G11G12G13G14G15G16G17G18
+        G19G20G21G22G24G25G26G27G28G29G30G31G32R01R02R03R04
+        R05R07R08R09R11R12R13R14R15R16R17R18R19R20R21R22R24
+        R25R26  0  0  0  0  0  0  0  0  0  0  0  0  0  0  0
+          0  0  0  0  0  0  0  0  0  0  0  0  0  0  0  0  0
++         8  7  9  8  9  9 10  8  8  8  7  9  8  9  6  9  9
++         8  8  8  7  8  8  8  6  8  8  8  7  7  8  9  8  7
++         8 10  6  8  6  9  9 10  8  6  8  8  9 10  7  7  9
++         8  8  0  0  0  0  0  0  0  0  0  0  0  0  0  0  0
++         0  0  0  0  0  0  0  0  0  0  0  0  0  0  0  0  0
%c M  cc GPS ccc cccc cccc cccc cccc ccccc ccccc ccccc ccccc
%c cc cc ccc ccc cccc cccc cccc cccc ccccc ccccc ccccc ccccc
%f  0.0000000  0.000000000  0.00000000000  0.000000000000000
%f  0.0000000  0.000000000  0.00000000000  0.000000000000000
%i    0    0    0    0      0      0      0      0         0
%i    0    0    0    0      0      0      0      0         0
/* IAC                                ULTRA-RAPID PREDICTION
/* S/V CLOCKS ARE ALIGNED TO GNSS TIME                      
/* G:C1WC2W R:C1PC2P E:C1XC5X C:C2IC6I J:C1CC2S             
/* PCV:IGS20_2317 OL/AL:FES2004  NONE     YN ORB:CoN CLK:CoN
*  2024 06 29  1  0  0.00000000
PG02 -18277.621846  -6316.342207  18813.388878   -408.953188
PG03 -19088.240797   7205.715788  16777.054150    435.096030
PG04 -26272.426967   -690.532924  -4307.140419    393.050212
PG05  12439.623022   8484.674470 -22061.184984   -177.956884
PG06   3792.161196  24530.221167   9358.641685    191.986755
PG07 -10304.771466  12647.199941 -20347.876268    -81.299830
PG08 -25030.989155  -6681.046442  -6905.362039    251.460384
PG09 -20451.375344   8685.356910 -14674.519576    252.838607
PG10   8679.699963 -22991.556112   9847.506426    -53.471963
PG11  12206.061198  23234.483838  -4258.691593   -695.009032
PG12  19172.196873  -3660.805859  17710.987727   -518.007921
PG13  19099.153820  13769.967526 -12731.849797    661.124296
PG14 -11986.729097  22807.050119   5999.972629    436.571839
PG15  25449.310950   4131.576037  -7277.796463    175.320140
PG16  -9335.130353 -12453.408792 -21813.983133   -251.228507
PG17  -7488.494167  13926.400229  21782.162780    687.100647
PG18   9649.595062 -13370.456808 -20761.572345   -630.682518
PG19   3290.118751  15585.666473  21147.478786    503.063328
PG20   6400.827401  17508.199646 -18910.936317    373.323454
PG21 -18991.908128 -12152.588200  15242.465597    112.379181
PG22  -6507.207099  22124.471704  13847.083037    -33.225765
PG24  18850.677401   8651.069521  16391.119101   -480.555055
PG25  19370.085163 -14016.369312  10951.748848    497.944771
PG26     -7.682642 -21712.733835 -15198.680816    129.095551
PG27 -17382.833643 -12880.884325 -15973.776413    -29.722126
PG28  -2756.477732 -23858.532510  11332.042908   -309.235295
PG29  23067.430101  -4503.993599 -12539.325212   -592.074943
PG30  -2446.639777  21606.294177 -14917.915403   -366.556414
PG31 -10007.277929 -24366.792380    253.881559   -227.122250
PG32   4162.773730 -14866.156725  21812.479377   -614.552980
PR01   8126.003098 -12686.705379  20588.928203     89.812102
PR02  -9882.229034  -8047.398813  22152.159166    -23.479725
PR03 -22990.153436    906.705747  11121.030890    102.920259
PR04 -23252.583297   8828.853862  -5657.757286    243.201668
PR05 -11161.876468  12175.447590 -19434.212831    133.796240
PR07  23233.440688  -1319.087751 -10350.833330     85.569690
PR08  23010.245173  -9201.753549   6035.693224     -5.413373
PR09   3785.205804  19422.914180  16068.239046    194.809082
PR11  12136.234288 -13511.504821  17935.756428     19.891496
PR12   6534.813184 -24647.531647    506.526423     41.854247
PR13  -1855.056417 -21165.027560 -14123.494765    -48.798380
PR14 -10658.478006  -3321.287413 -22917.588802     26.635871
PR15 -12136.622702  14887.563220 -16754.169853     78.381909
PR16  -6488.085011  24638.963121   -657.576594     26.896633
PR17 -19315.695147 -11585.508725  11931.473371    100.009375
PR18 -12536.240989   1522.370645  22180.268148    149.341926
PR19  -1257.174296  13076.247004  21861.219861   -282.011840
PR20  14392.769452  20020.382872   6467.243051   -115.268167
PR21  19256.137929  12063.062933 -11628.178666   -113.198928
PR22  12064.790092  -2532.360002 -22307.604332     96.440341
PR24 -15486.202839 -19389.560631  -5850.151923    -61.720878
PR25  18959.375649  12051.227471 -12103.847465    -93.336228
PR26  23502.563318  -8816.458942   4628.481326     -5.260372
*  2024 06 29  1 15  0.00000000
PG02 -19183.369498  -8059.446675  17155.025383   -408.946736
PG03 -18032.310535   5447.609537  18512.814799    435.111566
PG04 -26577.156402   -954.779346  -1475.563542    393.057364
PG05  11135.887083  10582.324087 -21841.163265   -177.958076
PG06   3138.271647  23501.105791  11918.457121    191.967031
PG07 -11467.612651  10448.896542 -20989.723888    -81.291811
PG08 -24107.078699  -6871.088967  -9511.602408    251.475944
PG09 -21978.236970   8414.405517 -12447.809898    252.851908
PG10   9373.982543 -23671.415761   7150.540385    -53.480034
PG11  12119.248424  23626.983329  -1420.197067   -695.015781
PG12  17945.940417  -1870.828317  19194.459247   -518.010762
PG13  17559.435617  13593.500489 -14958.304548    661.126616
PG14 -12544.366989  23057.922744   3228.589138    436.579958
PG15  24557.903477   4481.274045  -9841.694083    175.323923
PG16  -7771.923250 -14276.111301 -21256.110821   -251.218937
PG17  -9820.790501  13568.721366  21069.569149    687.094811
PG18  10724.994944 -11199.156884 -21522.583990   -630.686571
PG19    846.320616  15175.952018  21638.513929    503.068180
PG20   5422.495541  19354.524269 -17372.760478    373.323063
PG21 -19674.668528 -13516.444777  13098.368500    112.376905
PG22  -7521.231940  23080.945944  11530.819463    -33.230054
PG24  19621.130028  10323.472823  14493.645160   -480.556958
PG25  18798.545789 -12662.797614  13299.294218    497.945179
PG26   1025.794417 -22985.394517 -13095.572804    129.089639
PG27 -15511.530492 -12891.523268 -17783.703270    -29.723136
PG28  -1905.791947 -22688.031649  13668.041929   -309.250059
PG29  24308.425242  -4132.996562 -10081.876855   -592.073370
PG30  -3468.953488  20039.344783 -16791.586834   -366.550729
PG31  -9638.375145 -24295.643583   3110.228566   -227.122052
PG32   6579.834795 -14667.334660  21324.387216   -614.551599
PR01  10409.459846 -13547.291559  18948.847662     89.813298
PR02  -7218.257341  -8799.722028  22878.560209    -23.479800
PR03 -21486.359422    589.022762  13826.412184    102.920950
PR04 -23686.707552   9144.268321  -2481.523485    243.203168
PR05 -13319.078178  12927.663796 -17495.857391    133.796835
PR07  21800.788797  -1020.321051 -13123.251462     85.570560
PR08  23481.801217  -9514.002547   2874.469376     -5.413625
PR09   3503.926244  21233.572015  13649.249006    194.810929
PR11  11568.024128 -11257.552141  19773.107605     19.890444
PR12   6351.598650 -24426.114889   3698.517201     41.854717
PR13  -1638.863928 -22731.210082 -11464.950057    -48.798650
PR14 -10087.700329  -6074.988311 -22611.607291     26.635971
PR15 -11584.359619  12759.463513 -18776.720771     78.381681
PR16  -6282.579608  24395.840241  -3859.363313     26.897021
PR17 -20376.479667 -12349.830364   9048.308369    100.012436
PR18 -14512.259386   -266.186613  20997.583757    149.343743
PR19  -3144.901970  11063.001232  22763.067882   -282.013110
PR20  13849.191648  19169.584912   9517.248671   -115.268648
PR21  20291.677960  12796.140749  -8721.243059   -113.201733
PR22  13995.834840   -650.658873 -21291.107239     96.435543
PR24 -14918.576902 -18661.241954  -8896.669840    -61.722139
PR25  19979.285750  12896.218887  -9260.788810    -93.363755
PR26  23807.298404  -9085.800575   1437.785006     -5.259455
EOF
